ONEWEB-0309             
1 49095U 21075W   23306.61128359  .00000051  00000+0  98109-4 0  9997
2 49095  87.9242 196.1871 0001075  90.4084 269.7171 13.17651199107477
ONEWEB-0310             
1 49096U 21075X   23306.69723986 -.00000333  00000+0 -96121-3 0  9999
2 49096  87.9055 181.0671 0001540  75.7666 284.3634 13.12444973110599
ONEWEB-0311             
1 49097U 21075Y   23306.61761771  .00000023  00000+0  26614-4 0  9991
2 49097  87.9178 196.1868 0001968  87.3296 272.8061 13.17648395107527
ONEWEB-0312             
1 49098U 21075Z   23306.70619971  .00000093  00000+0  20623-3 0  9996
2 49098  87.9261 196.1909 0001495  94.1990 265.9312 13.17651694108494
ONEWEB-0313             
1 49099U 21075AA  23306.60918031 -.00000010  00000+0 -59257-4 0  9992
2 49099  87.9241 196.2223 0001616  88.7314 271.4003 13.17648849107493
ONEWEB-0314             
1 49100U 21075AB  23306.60284897  .00000025  00000+0  29980-4 0  9995
2 49100  87.9245 196.1862 0001619  97.1186 263.0129 13.17648172107464
ONEWEB-0315             
1 49101U 21075AC  23306.59409736 -.00000175  00000+0 -52623-3 0  9992
2 49101  87.9045 181.0957 0001841  72.4118 287.7211 13.11949102109568
ONEWEB-0316             
1 49102U 21075AD  23306.59751481  .00000144  00000+0  33222-3 0  9998
2 49102  87.9173 165.9611 0002087  83.8839 276.2531 13.18684552111000
